{"type": "FeatureCollection", "features": [ {"type": "Feature", "properties": {"norad_id": 66450, "name": "STARLINK-35334", "group": "last-30-days", "lat": -42.66562988757499, "lon": -16.55551192794309, "alt_km": 417.5371623617475, "timestamp": "2025-12-09T16:56:35.358045+00:00", "meta": {"OBJECT_NAME": "STARLINK-35334", "OBJECT_ID": "2025-259AE", "EPOCH": "2025-12-09T12:39:55.197216", "MEAN_MOTION": 15.50589947, "ECCENTRICITY": 0.0001228, "INCLINATION": 43.0008, "RA_OF_ASC_NODE": 65.9977, "ARG_OF_PERICENTER": 260.1999, "MEAN_ANOMALY": 99.8723, "EPHEMERIS_TYPE": 0, "CLASSIFICATION_TYPE": "U", "NORAD_CAT_ID": 66450, "ELEMENT_SET_NO": 999, "REV_AT_EPOCH": 567, "BSTAR": 0.00023426, "MEAN_MOTION_DOT": 0.0001343, "MEAN_MOTION_DDOT": 0}, "tle": {"line1": "1 66450U 25259AE  25343.52772219  .00013430  00000+0  23426-3 0  9996", "line2": "2 66450  43.0008  65.9977 0001228 260.1999  99.8723 15.50589947  5679"}}, "geometry": {"type": "Point", "coordinates": [-16.55551192794309, -42.66562988757499]}}, {"type": "Feature", "properties": {"norad_id": 66454, "name": "VIASAT-3 F2", "group": "last-30-days", "lat": -3.149718632933226, "lon": -102.11525008656605, "alt_km": 21790.149275762866, "timestamp": "2025-12-09T16:56:35.358061+00:00", "meta": {"OBJECT_NAME": "VIASAT-3 F2", "OBJECT_ID": "2025-261A", "EPOCH": "2025-12-06T17:04:58.090944", "MEAN_MOTION": 2.24196708, "ECCENTRICITY": 0.23030921, "INCLINATION": 5.516, "RA_OF_ASC_NODE": 292.8248, "ARG_OF_PERICENTER": 186.81, "MEAN_ANOMALY": 221.0538, "EPHEMERIS_TYPE": 0, "CLASSIFICATION_TYPE": "U", "NORAD_CAT_ID": 66454, "ELEMENT_SET_NO": 999, "REV_AT_EPOCH": 51, "BSTAR": 0, "MEAN_MOTION_DOT": -7.3e-07, "MEAN_MOTION_DDOT": 0}, "tle": {"line1": "1 66454U 25261A   25340.71178346 -.00000073  00000+0  00000+0 0  9991", "line2": "2 66454   5.5160 292.8248 2303092 186.8100 221.0538  2.24196708   518"}}, "geometry": {"type": "Point", "coordinates": [-102.11525008656605, -3.149718632933226]}}, {"type": "Feature", "properties": {"norad_id": 66455, "name": "ATLAS 5 CENTAUR R/B", "group": "last-30-days", "lat": 0.05622068108973195, "lon": -67.5164294181366, "alt_km": 23627.196879513307, "timestamp": "2025-12-09T16:56:35.358073+00:00", "meta": {"OBJECT_NAME": "ATLAS 5 CENTAUR R/B", "OBJECT_ID": "2025-261B", "EPOCH": "2025-12-09T04:50:38.740128", "MEAN_MOTION": 2.28259592, "ECCENTRICITY": 0.23295213, "INCLINATION": 6.1502, "RA_OF_ASC_NODE": 291.9704, "ARG_OF_PERICENTER": 185.7729, "MEAN_ANOMALY": 117.5169, "EPHEMERIS_TYPE": 0, "CLASSIFICATION_TYPE": "U", "NORAD_CAT_ID": 66455, "ELEMENT_SET_NO": 999, "REV_AT_EPOCH": 56, "BSTAR": 0, "MEAN_MOTION_DOT": -8e-07, "MEAN_MOTION_DDOT": 0}, "tle": {"line1": "1 66455U 25261B   25343.20183727 -.00000080  00000+0  00000+0 0  9996", "line2": "2 66455   6.1502 291.9704 2329521 185.7729 117.5169  2.28259592   562"}}, "geometry": {"type": "Point", "coordinates": [-67.5164294181366, 0.05622068108973195]}}, {"type": "Feature", "properties": {"norad_id": 66456, "name": "STARLINK-35643", "group": "last-30-days", "lat": -28.477747781702533, "lon": -55.307961457981726, "alt_km": 446.253011728455, "timestamp": "2025-12-09T16:56:35.358085+00:00", "meta": {"OBJECT_NAME": "STARLINK-35643", "OBJECT_ID": "2025-262A", "EPOCH": "2025-12-09T12:00:02.000160", "MEAN_MOTION": 15.4074585, "ECCENTRICITY": 0.00014, "INCLINATION": 43.0001, "RA_OF_ASC_NODE": 90.2793, "ARG_OF_PERICENTER": 287.6149, "MEAN_ANOMALY": 233.0836, "EPHEMERIS_TYPE": 0, "CLASSIFICATION_TYPE": "U", "NORAD_CAT_ID": 66456, "ELEMENT_SET_NO": 999, "REV_AT_EPOCH": 511, "BSTAR": -0.0030445, "MEAN_MOTION_DOT": -0.00125601, "MEAN_MOTION_DDOT": 0}, "tle": {"line1": "1 66456U 25262A   25343.50002315 -.00125601  00000+0 -30445-2 0  9991", "line2": "2 66456  43.0001  90.2793 0001400 287.6149 233.0836 15.40745850  5110"}}, "geometry": {"type": "Point", "coordinates": [-55.307961457981726, -28.477747781702533]}}, {"type": "Feature", "properties": {"norad_id": 66457, "name": "STARLINK-35466", "group": "last-30-days", "lat": -39.59321470827752, "lon": -28.401272061671683, "alt_km": 446.79783985838276, "timestamp": "2025-12-09T16:56:35.358095+00:00", "meta": {"OBJECT_NAME": "STARLINK-35466", "OBJECT_ID": "2025-262B", "EPOCH": "2025-12-09T12:00:02.000160", "MEAN_MOTION": 15.40656013, "ECCENTRICITY": 0.0001061, "INCLINATION": 42.9999, "RA_OF_ASC_NODE": 90.2176, "ARG_OF_PERICENTER": 286.8953, "MEAN_ANOMALY": 258.696, "EPHEMERIS_TYPE": 0, "CLASSIFICATION_TYPE": "U", "NORAD_CAT_ID": 66457, "ELEMENT_SET_NO": 999, "REV_AT_EPOCH": 511, "BSTAR": 0.00092492, "MEAN_MOTION_DOT": 0.00038471, "MEAN_MOTION_DDOT": 0}, "tle": {"line1": "1 66457U 25262B   25343.50002315  .00038471  00000+0  92492-3 0  9999", "line2": "2 66457  42.9999  90.2176 0001061 286.8953 258.6960 15.40656013  5110"}}, "geometry": {"type": "Point", "coordinates": [-28.401272061671683, -39.59321470827752]}}, {"type": "Feature", "properties": {"norad_id": 66458, "name": "STARLINK-35684", "group": "last-30-days", "lat": -34.76466655451699, "lon": -42.79094936952867, "alt_km": 446.2417281137741, "timestamp": "2025-12-09T16:56:35.358106+00:00", "meta": {"OBJECT_NAME": "STARLINK-35684", "OBJECT_ID": "2025-262C", "EPOCH": "2025-12-09T12:00:02.000160", "MEAN_MOTION": 15.40670066, "ECCENTRICITY": 0.0001379, "INCLINATION": 43.0001, "RA_OF_ASC_NODE": 90.2489, "ARG_OF_PERICENTER": 262.6777, "MEAN_ANOMALY": 270.4409, "EPHEMERIS_TYPE": 0, "CLASSIFICATION_TYPE": "U", "NORAD_CAT_ID": 66458, "ELEMENT_SET_NO": 999, "REV_AT_EPOCH": 511, "BSTAR": 0.00093261, "MEAN_MOTION_DOT": 0.00038813, "MEAN_MOTION_DDOT": 0}, "tle": {"line1": "1 66458U 25262C   25343.50002315  .00038813  00000+0  93261-3 0  9995", "line2": "2 66458  43.0001  90.2489 0001379 262.6777 270.4409 15.40670066  5116"}}, "geometry": {"type": "Point", "coordinates": [-42.79094936952867, -34.76466655451699]}}, {"type": "Feature", "properties": {"norad_id": 66459, "name": "STARLINK-35449", "group": "last-30-days", "lat": -42.413258415137186, "lon": -12.374538454445922, "alt_km": 446.66359708060736, "timestamp": "2025-12-09T16:56:35.358130+00:00", "meta": {"OBJECT_NAME": "STARLINK-35449", "OBJECT_ID": "2025-262D", "EPOCH": "2025-12-09T12:00:02.000160", "MEAN_MOTION": 15.40656878, "ECCENTRICITY": 0.0001288, "INCLINATION": 43, "RA_OF_ASC_NODE": 90.1874, "ARG_OF_PERICENTER": 282.4127, "MEAN_ANOMALY": 275.6158, "EPHEMERIS_TYPE": 0, "CLASSIFICATION_TYPE": "U", "NORAD_CAT_ID": 66459, "ELEMENT_SET_NO": 999, "REV_AT_EPOCH": 511, "BSTAR": 0.00094844, "MEAN_MOTION_DOT": 0.00039463, "MEAN_MOTION_DDOT": 0}, "tle": {"line1": "1 66459U 25262D   25343.50002315  .00039463  00000+0  94844-3 0  9996", "line2": "2 66459  43.0000  90.1874 0001288 282.4127 275.6158 15.40656878  5114"}}, "geometry": {"type": "Point", "coordinates": [-12.374538454445922, -42.413258415137186]}}, {"type": "Feature", "properties": {"norad_id": 66460, "name": "STARLINK-35424", "group": "last-30-days", "lat": -42.84569916569949, "lon": 4.516220675852563, "alt_km": 446.46723539219784, "timestamp": "2025-12-09T16:56:35.358142+00:00", "meta": {"OBJECT_NAME": "STARLINK-35424", "OBJECT_ID": "2025-262E", "EPOCH": "2025-12-09T12:00:02.000160", "MEAN_MOTION": 15.40647169, "ECCENTRICITY": 0.0001541, "INCLINATION": 43, "RA_OF_ASC_NODE": 90.1578, "ARG_OF_PERICENTER": 273.8877, "MEAN_ANOMALY": 296.5977, "EPHEMERIS_TYPE": 0, "CLASSIFICATION_TYPE": "U", "NORAD_CAT_ID": 66460, "ELEMENT_SET_NO": 999, "REV_AT_EPOCH": 511, "BSTAR": 0.0010645, "MEAN_MOTION_DOT": 0.00044343, "MEAN_MOTION_DDOT": 0}, "tle": {"line1": "1 66460U 25262E   25343.50002315  .00044343  00000+0  10645-2 0  9997", "line2": "2 66460  43.0000  90.1578 0001541 273.8877 296.5977 15.40647169  5119"}}, "geometry": {"type": "Point", "coordinates": [4.516220675852563, -42.84569916569949]}}, {"type": "Feature", "properties": {"norad_id": 66461, "name": "STARLINK-35132", "group": "last-30-days", "lat": -40.83258028844825, "lon": 20.912875148382312, "alt_km": 445.16327303700564, "timestamp": "2025-12-09T16:56:35.358153+00:00", "meta": {"OBJECT_NAME": "STARLINK-35132", "OBJECT_ID": "2025-262F", "EPOCH": "2025-12-09T12:00:02.000160", "MEAN_MOTION": 15.4167213, "ECCENTRICITY": 0.0001499, "INCLINATION": 42.9999, "RA_OF_ASC_NODE": 90.1295, "ARG_OF_PERICENTER": 291.2654, "MEAN_ANOMALY": 291.1027, "EPHEMERIS_TYPE": 0, "CLASSIFICATION_TYPE": "U", "NORAD_CAT_ID": 66461, "ELEMENT_SET_NO": 999, "REV_AT_EPOCH": 511, "BSTAR": -0.035945, "MEAN_MOTION_DOT": -0.01410142, "MEAN_MOTION_DDOT": 0}, "tle": {"line1": "1 66461U 25262F   25343.50002315 -.01410142  00000+0 -35945-1 0  9994", "line2": "2 66461  42.9999  90.1295 0001499 291.2654 291.1027 15.41672130  5114"}}, "geometry": {"type": "Point", "coordinates": [20.912875148382312, -40.83258028844825]}}, {"type": "Feature", "properties": {"norad_id": 66462, "name": "STARLINK-35499", "group": "last-30-days", "lat": -37.05443779135909, "lon": 34.79010217732715, "alt_km": 441.599695109755, "timestamp": "2025-12-09T16:56:35.358165+00:00", "meta": {"OBJECT_NAME": "STARLINK-35499", "OBJECT_ID": "2025-262G", "EPOCH": "2025-12-09T12:00:02.000160", "MEAN_MOTION": 15.43205965, "ECCENTRICITY": 8.9e-05, "INCLINATION": 42.9998, "RA_OF_ASC_NODE": 90.1029, "ARG_OF_PERICENTER": 286.5095, "MEAN_ANOMALY": 306.2719, "EPHEMERIS_TYPE": 0, "CLASSIFICATION_TYPE": "U", "NORAD_CAT_ID": 66462, "ELEMENT_SET_NO": 999, "REV_AT_EPOCH": 511, "BSTAR": -0.048681, "MEAN_MOTION_DOT": -0.01973833, "MEAN_MOTION_DDOT": 0}, "tle": {"line1": "1 66462U 25262G   25343.50002315 -.01973833  00000+0 -48681-1 0  9997", "line2": "2 66462  42.9998  90.1029 0000890 286.5095 306.2719 15.43205965  5115"}}, "geometry": {"type": "Point", "coordinates": [34.79010217732715, -37.05443779135909]}}]}